CAS-2T & KS-1Q          
1 41847U 16066G   20222.85195229  .00000043  00000-0  16059-4 0  9994
2 41847  98.6497 273.8914 0366664  69.8935 294.1310 14.38083656197094
NAYIF-1 (EO-88)         
1 42017U 17008BX  20222.90597654  .00001352  00000-0  54320-4 0  9992
2 42017  97.3566 289.6830 0007614 124.9555 235.2400 15.26627028193702
MAX VALIER SAT          
1 42778U 17036P   20222.90145747  .00000776  00000-0  36200-4 0  9995
2 42778  97.3009 275.0493 0011952 185.9965 174.1131 15.22699768173867
RADFXSAT (FOX-1B)       
1 43017U 17073E   20222.97260410  .00000229  00000-0  23808-4 0  9998
2 43017  97.7189 133.1423 0255535 235.8147 121.8606 14.78988252147077
FOX-1D (AO-92)          
1 43137U 18004AC  20222.85896930  .00000856  00000-0  38040-4 0  9995
2 43137  97.4428 293.6532 0008002 219.8857 140.1793 15.24209425143180
DIWATA-2B               
1 43678U 18084H   20223.47499124 -.00000320  00000-0 -26104-4 0  9992
2 43678  97.8908 341.8946 0010085   7.0676 353.0686 14.91639626 97077
ES'HAIL 2               
1 43700U 18090A   20222.86716146  .00000142  00000-0  00000-0 0  9996
2 43700   0.0187 103.6371 0002091  70.1067 123.0276  1.00275684  6242
FOX-1CLIFF (AO-95)      
1 43770U 18099N   20222.85253921 -.00000065  00000-0 -69531-6 0  9994
2 43770  97.7029 293.2956 0015059  24.4917 335.7015 14.95018218 91890
ITASAT 1                
1 43786U 18099AE  20222.77051835 -.00000091  00000-0 -29863-5 0  9994
2 43786  97.7047 293.6727 0015643  18.4714 341.7071 14.95355395 91905
JY1SAT (JO-97)          
1 43803U 18099AX  20223.18009594 -.00000185  00000-0 -11468-4 0  9990
2 43803  97.7005 293.8816 0015509  17.2251 342.9493 14.95536697 91967
PSAT2 (NO-104)          
1 44354U 19036R   20223.14633736  .00014598  00000-0  21196-3 0  9990
2 44354  28.5311  27.7934 0360648 164.7170 196.4641 15.04411358 61906
BRICSAT2 (NO-103)       
1 44355U 19036S   20222.75284285  .00024483  00000-0  33707-3 0  9993
2 44355  28.5319  18.7147 0335975 179.4605 180.6394 15.10648804 61963
JAISAT-1                
1 44419U 19038F   20223.46238062  .00000730  00000-0  45142-4 0  9993
2 44419  97.5424 184.4395 0020233 307.7173  52.2223 15.12857163 60761
DUCHIFAT-3              
1 44854U 19089C   20223.18008674  .00000358  00000-0  35298-4 0  9992
2 44854  36.9657 140.8295 0007268 141.3541 218.7713 14.99099035 36360
RS-44 & BREEZE-KM R/B   
1 44909U 19096E   20222.83600573  .00000026  00000-0  49369-4 0  9994
2 44909  82.5241 319.8445 0218489 101.6972 260.8734 12.79707850 29010
ORBITAL FACTORY 2 (OF-2)
1 45113U 19071C   20222.85901710  .00001305  00000-0  51147-4 0  9992
2 45113  51.6443 105.5312 0012349 249.0663 110.8998 15.33512589 29329
HUSKYSAT-1              
1 45119U 19071J   20223.28618526  .00001364  00000-0  52629-4 0  9997
2 45119  51.6442 103.1340 0011603 247.0570 112.9188 15.33718751 29385
